{
"type": "FeatureCollection",
"name": "Nagarahole Map",
"crs": { "type": "name", "properties": { "name": "urn:ogc:def:crs:OGC:1.3:CRS84" } },
"features": [
{"type":"Feature","properties":{"fid":1},"geometry":{"type":"Polygon","coordinates":[[[76.089436341590925,12.261070423556838],[76.071618348768183,12.253815504570145],[76.062709352356848,12.248011425717802],[76.048603441372208,12.23857952537802],[76.034497530387583,12.232775111594494],[76.024103701240975,12.232775111594494],[76.026330950343819,12.213184274172571],[76.00851295752112,12.223342667309337],[76.002573626580229,12.217537918985798],[76.001088793845,12.211007424912474],[76.014452288462024,12.20955618212871],[76.02484611760859,12.202299848918758],[76.025588533976205,12.192140648571197],[76.025588533976205,12.186335216458174],[76.028558199446678,12.182706756873683],[76.031527864917095,12.184883838578394],[76.035982363122798,12.184158146661384],[76.037467195858,12.183432452759776],[76.044148943166533,12.191414976506268],[76.044891359534148,12.185609528510694],[76.044148943166533,12.18125535914848],[76.043406526798933,12.179803953486658],[76.048603441372208,12.177626830114724],[76.050830690475053,12.177626830114724],[76.056770021415943,12.17617540461525],[76.057512437783572,12.173998251491001],[76.067906266930123,12.173998251491001],[76.074588014238643,12.173998251491001],[76.076815263341501,12.182706756873683],[76.082754594282406,12.176901118356732],[76.084981843385236,12.17327252981668],[76.092406007061371,12.172546806159424],[76.095375672531816,12.172546806159424],[76.096118088899431,12.166015204030495],[76.09760292163466,12.158757680062068],[76.09017875795854,12.154403070599717],[76.087951508855696,12.149322602803251],[76.087951508855696,12.142790430277223],[76.087951508855696,12.11666013858526],[76.083497010650021,12.107223570842732],[76.069391099665367,12.09706074041711],[76.058997270518788,12.095608875951774],[76.052315523210268,12.098512596997384],[76.051573106842667,12.093431064471194],[76.054542772313113,12.088349435380119],[76.057512437783572,12.085445603987099],[76.056770021415943,12.073829963367984],[76.053057939577883,12.066569932149928],[76.051573106842667,12.06366586459176],[76.056770021415943,12.057131597576848],[76.053800355945512,12.049871114207834],[76.052315523210268,12.043336511247308],[76.048603441372208,12.040432192221086],[76.044891359534148,12.037527841793406],[76.044891359534148,12.03171904676217],[76.056770021415943,12.026636248141978],[76.058997270518788,12.020827217806852],[76.069391099665367,12.016470362749798],[76.073845597871028,11.98524417256848],[76.091663590693756,11.969992858989634],[76.110966416251671,11.977255496676937],[76.114678498089731,11.913337595165558],[76.11319366535453,11.895176352495213],[76.111708832619286,11.886458525159478],[76.114678498089731,11.857397085271652],[76.133238907280074,11.865389290095447],[76.130269241809629,11.869022033049916],[76.136950989118134,11.869022033049916],[76.139920654588579,11.869022033049916],[76.137693405485749,11.874834321084654],[76.145117569161869,11.874834321084654],[76.160708312881752,11.874834321084654],[76.164420394719812,11.883552520657965],[76.167390060190272,11.878466938151822],[76.174071807498777,11.882826014686023],[76.192632216689077,11.877740418613405],[76.204510878570886,11.874107791859251],[76.21119262587942,11.877013897137369],[76.21490470771748,11.879919971415342],[76.217131956820296,11.882826014686023],[76.215647124085095,11.884279024691393],[76.210450209511805,11.888638008176915],[76.208222960408932,11.890090987158915],[76.20748054404136,11.894449877552892],[76.210450209511805,11.903167448776392],[76.21119262587942,11.903893900427741],[76.211935042247035,11.908979007615075],[76.21119262587942,11.912611168764219],[76.208965376776575,11.915516862710591],[76.214162291349879,11.917696112764801],[76.219359205923155,11.917696112764801],[76.224556120496445,11.907526129557692],[76.226040953231674,11.906073243731523],[76.23272270054018,11.917696112764801],[76.23272270054018,11.92423375795239],[76.230495451437349,11.932950373148289],[76.237919615113469,11.943119403339459],[76.237919615113469,11.948203775300941],[76.243116529686745,11.949656435469906],[76.248313444260063,11.945298431582591],[76.247571027892448,11.953288051788691],[76.250540693362908,11.964182608305725],[76.248313444260063,11.969266584484229],[76.252025526098123,11.993958822048134],[76.254995191568568,12.006304093409812],[76.254995191568568,12.014291908774386],[76.266873853450377,12.029540716261682],[76.259449689774243,12.030992938556446],[76.257964857039028,12.044062586096549],[76.249055860627649,12.045514729905481],[76.246086195157233,12.047692930893323],[76.246828611524805,12.052049279845995],[76.253510358833353,12.052049279845995],[76.252767942465724,12.075281946002649],[76.264646604347533,12.076733920765582],[76.271328351656052,12.086171564789865],[76.278752515332172,12.086897523623032],[76.282464597170232,12.102142203945048],[76.261676938877088,12.106497667203502],[76.257964857039028,12.107949472509135],[76.252767942465724,12.101416286499159],[76.249055860627649,12.096334809170019],[76.241631696951529,12.094157003602243],[76.229753035069734,12.103594032920567],[76.231980284172565,12.108675372202605],[76.230495451437349,12.11303072892556],[76.221586455025999,12.11593426060141],[76.217131956820296,12.118111888630034],[76.21490470771748,12.125370520366658],[76.21861678955554,12.142790430277223],[76.225298536864059,12.144967838927647],[76.23272270054018,12.144242038022625],[76.235692366010625,12.142790430277223],[76.243858946054388,12.138435559566101],[76.254995191568568,12.144967838927647],[76.257222440671413,12.154403070599717],[76.257964857039028,12.156580384242597],[76.250540693362908,12.162386466812123],[76.256480024303798,12.169643891703309],[76.249055860627649,12.171821080519351],[76.249798276995293,12.189963626419402],[76.255737607936183,12.194317652850623],[76.256480024303798,12.203751131463275],[76.243858946054388,12.200848558424756],[76.239404447848685,12.211007424912474],[76.234207533275409,12.20955618212871],[76.229753035069734,12.200122910196967],[76.226040953231674,12.19576897910634],[76.220844038658356,12.189237948397679],[76.215647124085095,12.185609528510694],[76.211935042247035,12.184883838578394],[76.205995711306102,12.18125535914848],[76.203026045835685,12.17617540461525],[76.201541213100441,12.171821080519351],[76.197086714894766,12.17036962329118],[76.195601882159536,12.178352539889115],[76.190404967586247,12.179803953486658],[76.187435302115802,12.182706756873683],[76.184465636645356,12.18778658639823],[76.163677978352169,12.185609528510694],[76.159965896514109,12.180529657309593],[76.155511398308434,12.184883838578394],[76.149572067367544,12.18778658639823],[76.140663070956194,12.184158146661384],[76.136950989118134,12.183432452759776],[76.133238907280074,12.197945953591832],[76.133238907280074,12.20592804037282],[76.118390579927791,12.207379303039733],[76.12136024539825,12.212458659741429],[76.122845078133466,12.217537918985798],[76.119132996295406,12.222617080734791],[76.117648163560219,12.22769614495037],[76.110966416251671,12.234951781706592],[76.103542252575551,12.240756147666753],[76.105769501678395,12.246560386058913],[76.089436341590925,12.261070423556838]]]}}
]
}
